CELESTIS-17 & SHERPA-FX1
1 47486U 21006CB  26068.64311433  .00007207  00000+0  24301-3 0  9993
2 47486  97.2397 112.1052 0006630 178.1385 181.9882 15.30994801284065
STARLINK-30593          
1 58112U 23161R   26068.58194638 -.00001279  00000+0 -31070-4 0  9991
2 58112  53.1606 166.1341 0001214  99.1036 261.0102 15.30190443134402
